IRIDIUM 126             
1 42809U 17039G   24096.88045264  .00000140  00000+0  42908-4 0  9992
2 42809  86.3977 328.9492 0002224  93.0862 267.0588 14.34218716354959
IRIDIUM 124             
1 42810U 17039H   24096.89457417  .00000180  00000+0  47459-4 0  9992
2 42810  86.4443 265.6438 0002171  85.8730 274.2719 14.43275701359397
IRIDIUM 128             
1 42811U 17039J   24096.80143127  .00000351  00000+0  11822-3 0  9998
2 42811  86.4024   0.4851 0002269  83.9036 276.2418 14.34215782354973
IRIDIUM 121             
1 42812U 17039K   24096.89947885  .00000018  00000+0 -62349-6 0  9995
2 42812  86.3975 328.9630 0002037  86.5707 273.5722 14.34217759354837
IRIDIUM 133             
1 42955U 17061A   24097.46104953  .00000113  00000+0  33187-4 0  9994
2 42955  86.4027   0.3077 0002134  87.5229 272.6211 14.34218342339866
IRIDIUM 100             
1 42956U 17061B   24097.45470734  .00000293  00000+0  97435-4 0  9992
2 42956  86.4025   0.2477 0002242  88.0454 272.0998 14.34217773339889
IRIDIUM 122             
1 42957U 17061C   24096.86485111  .00000075  00000+0  19624-4 0  9994
2 42957  86.4025   0.4921 0002343  86.7598 273.3866 14.34217736339788
IRIDIUM 129             
1 42958U 17061D   24097.44837697  .00000315  00000+0  10532-3 0  9995
2 42958  86.4026   0.3071 0002298  88.5896 271.5563 14.34217599339887
